[{"OBJECT_NAME":"LEMU NGE","OBJECT_ID":"2024-149BS","EPOCH":"2026-03-09T16:59:36.530880","MEAN_MOTION":14.9450043,"ECCENTRICITY":0.00016851,"INCLINATION":97.6905,"RA_OF_ASC_NODE":145.6856,"ARG_OF_PERICENTER":57.8753,"MEAN_ANOMALY":302.2631,"EPHEMERIS_TYPE":0,"CLASSIFICATION_TYPE":"U","NORAD_CAT_ID":60532,"ELEMENT_SET_NO":999,"REV_AT_EPOCH":8509,"BSTAR":0.00029251922,"MEAN_MOTION_DOT":3.102e-5,"MEAN_MOTION_DDOT":0},{"OBJECT_NAME":"BIFROST-DNK","OBJECT_ID":"2025-135BN","EPOCH":"2026-03-09T21:47:05.760384","MEAN_MOTION":14.94084434,"ECCENTRICITY":0.000349,"INCLINATION":97.761,"RA_OF_ASC_NODE":184.6338,"ARG_OF_PERICENTER":330.8145,"MEAN_ANOMALY":29.288,"EPHEMERIS_TYPE":0,"CLASSIFICATION_TYPE":"U","NORAD_CAT_ID":64588,"ELEMENT_SET_NO":999,"REV_AT_EPOCH":3908,"BSTAR":0.00037926768,"MEAN_MOTION_DOT":3.996e-5,"MEAN_MOTION_DDOT":0}]
